start=new Date('2021-10-11T00:00:00.000Z').valueOf();
sats=[{"TLE_LINE2":"2 47126  53.0545 332.8749 0001246  83.2413 276.8718 15.06400618 49052","REV_AT_EPOCH":"4905","DECAY_DATE":null,"FILE":"3155694","MEAN_MOTION_DDOT":"0.0000000000000","ELEMENT_SET_NO":"999","REF_FRAME":"TEME","MEAN_MOTION":"15.06400618","CENTER_NAME":"EARTH","OBJECT_TYPE":"PAYLOAD","ECCENTRICITY":"0.00012460","EPHEMERIS_TYPE":"0","RCS_SIZE":"LARGE","EPOCH":"2021-10-10T20:53:47.063040","COUNTRY_CODE":"US","CLASSIFICATION_TYPE":"U","INCLINATION":"53.0545","OBJECT_ID":"2020-088E","TLE_LINE1":"1 47126U 20088E   21283.87068360  .00002980  00000-0  21887-3 0  9990","MEAN_ANOMALY":"276.8718","PERIOD":"95.592","LAUNCH_DATE":"2020-11-25","GP_ID":"186840783","ARG_OF_PERICENTER":"83.2413","TIME_SYSTEM":"UTC","OBJECT_NAME":"STARLINK-1812","PERIAPSIS":"546.349","SEMIMAJOR_AXIS":"6925.347","SITE":"AFETR","MEAN_MOTION_DOT":"0.00002980","RA_OF_ASC_NODE":"332.8749","BSTAR":"0.00021887000000","APOAPSIS":"548.075","MEAN_ELEMENT_THEORY":"SGP4","NORAD_CAT_ID":"47126"},{"CLASSIFICATION_TYPE":"U","INCLINATION":"53.0541","COUNTRY_CODE":"US","EPOCH":"2021-10-10T11:55:04.467072","RCS_SIZE":"LARGE","EPHEMERIS_TYPE":"0","ECCENTRICITY":"0.00059860","CENTER_NAME":"EARTH","OBJECT_TYPE":"PAYLOAD","MEAN_MOTION":"15.06401970","REF_FRAME":"TEME","ELEMENT_SET_NO":"999","MEAN_MOTION_DDOT":"0.0000000000000","FILE":"3155694","DECAY_DATE":null,"REV_AT_EPOCH":"4927","TLE_LINE2":"2 47128  53.0541 314.5381 0005986  85.4394 274.7279 15.06401970 49271","NORAD_CAT_ID":"47128","MEAN_ELEMENT_THEORY":"SGP4","APOAPSIS":"551.353","BSTAR":"-0.00000808380000","RA_OF_ASC_NODE":"314.5381","SEMIMAJOR_AXIS":"6925.343","SITE":"AFETR","MEAN_MOTION_DOT":"-0.00000404","PERIAPSIS":"543.062","OBJECT_NAME":"STARLINK-1837","TIME_SYSTEM":"UTC","ARG_OF_PERICENTER":"85.4394","GP_ID":"186839531","LAUNCH_DATE":"2020-11-25","MEAN_ANOMALY":"274.7279","PERIOD":"95.592","TLE_LINE1":"1 47128U 20088G   21283.49657948 -.00000404  00000-0 -80838-5 0  9990","OBJECT_ID":"2020-088G"},{"ECCENTRICITY":"0.00013240","EPHEMERIS_TYPE":"0","RCS_SIZE":"LARGE","EPOCH":"2021-10-10T14:11:43.866816","COUNTRY_CODE":"US","INCLINATION":"53.0541","CLASSIFICATION_TYPE":"U","TLE_LINE2":"2 47129  53.0541 324.1223 0001324  66.6202 293.4926 15.06393470 49154","REV_AT_EPOCH":"4915","DECAY_DATE":null,"FILE":"3155694","MEAN_MOTION_DDOT":"0.0000000000000","ELEMENT_SET_NO":"999","REF_FRAME":"TEME","MEAN_MOTION":"15.06393470","CENTER_NAME":"EARTH","OBJECT_TYPE":"PAYLOAD","PERIAPSIS":"546.317","SITE":"AFETR","MEAN_MOTION_DOT":"-0.00000820","SEMIMAJOR_AXIS":"6925.369","RA_OF_ASC_NODE":"324.1223","BSTAR":"-0.00003617200000","APOAPSIS":"548.150","MEAN_ELEMENT_THEORY":"SGP4","NORAD_CAT_ID":"47129","TLE_LINE1":"1 47129U 20088H   21283.59147994 -.00000820  00000-0 -36172-4 0  9990","OBJECT_ID":"2020-088H","PERIOD":"95.593","MEAN_ANOMALY":"293.4926","LAUNCH_DATE":"2020-11-25","GP_ID":"186839781","ARG_OF_PERICENTER":"66.6202","TIME_SYSTEM":"UTC","OBJECT_NAME":"STARLINK-1838"},{"MEAN_MOTION":"15.06395848","CENTER_NAME":"EARTH","OBJECT_TYPE":"PAYLOAD","ELEMENT_SET_NO":"999","MEAN_MOTION_DDOT":"0.0000000000000","REF_FRAME":"TEME","REV_AT_EPOCH":"4891","DECAY_DATE":null,"FILE":"3155694","TLE_LINE2":"2 47130  53.0552 342.7016 0001464  74.5204 285.5947 15.06395848 48918","CLASSIFICATION_TYPE":"U","INCLINATION":"53.0552","COUNTRY_CODE":"US","EPOCH":"2021-10-10T21:45:33.041952","RCS_SIZE":"LARGE","ECCENTRICITY":"0.00014640","EPHEMERIS_TYPE":"0","TIME_SYSTEM":"UTC","ARG_OF_PERICENTER":"74.5204","OBJECT_NAME":"STARLINK-1839","LAUNCH_DATE":"2020-11-25","GP_ID":"186841032","MEAN_ANOMALY":"285.5947","PERIOD":"95.592","OBJECT_ID":"2020-088J","TLE_LINE1":"1 47130U 20088J   21283.90663243  .00001093  00000-0  92277-4 0  9996","NORAD_CAT_ID":"47130","APOAPSIS":"548.240","BSTAR":"0.00009227700000","MEAN_ELEMENT_THEORY":"SGP4","SITE":"AFETR","SEMIMAJOR_AXIS":"6925.361","MEAN_MOTION_DOT":"0.00001093","RA_OF_ASC_NODE":"342.7016","PERIAPSIS":"546.212"},{"ECCENTRICITY":"0.00096290","EPHEMERIS_TYPE":"0","EPOCH":"2021-10-10T18:03:45.697536","RCS_SIZE":"LARGE","COUNTRY_CODE":"US","CLASSIFICATION_TYPE":"U","INCLINATION":"53.0498","TLE_LINE2":"2 47131  53.0498 296.7326 0009629   8.2994 351.8168 15.42382589 49552","REV_AT_EPOCH":"4955","FILE":"3155694","DECAY_DATE":null,"ELEMENT_SET_NO":"999","MEAN_MOTION_DDOT":"0.0000000000000","REF_FRAME":"TEME","MEAN_MOTION":"15.42382589","CENTER_NAME":"EARTH","OBJECT_TYPE":"PAYLOAD","PERIAPSIS":"432.517","SEMIMAJOR_AXIS":"6817.217","SITE":"AFETR","MEAN_MOTION_DOT":"0.00031678","RA_OF_ASC_NODE":"296.7326","APOAPSIS":"445.646","BSTAR":"0.00072788000000","MEAN_ELEMENT_THEORY":"SGP4","NORAD_CAT_ID":"47131","TLE_LINE1":"1 47131U 20088K   21283.75261224  .00031678  00000-0  72788-3 0  9999","OBJECT_ID":"2020-088K","MEAN_ANOMALY":"351.8168","PERIOD":"93.362","LAUNCH_DATE":"2020-11-25","GP_ID":"186841283","TIME_SYSTEM":"UTC","ARG_OF_PERICENTER":"8.2994","OBJECT_NAME":"STARLINK-1840"},{"NORAD_CAT_ID":"47133","APOAPSIS":"547.670","BSTAR":"0.00005691400000","MEAN_ELEMENT_THEORY":"SGP4","SITE":"AFETR","MEAN_MOTION_DOT":"0.00000567","SEMIMAJOR_AXIS":"6925.336","RA_OF_ASC_NODE":"323.1085","PERIAPSIS":"546.732","TIME_SYSTEM":"UTC","ARG_OF_PERICENTER":"129.8791","OBJECT_NAME":"STARLINK-1843","LAUNCH_DATE":"2020-11-25","GP_ID":"186840031","MEAN_ANOMALY":"230.2257","PERIOD":"95.592","OBJECT_ID":"2020-088M","TLE_LINE1":"1 47133U 20088M   21283.84949344  .00000567  00000-0  56914-4 0  9994","CLASSIFICATION_TYPE":"U","INCLINATION":"53.0565","COUNTRY_CODE":"US","EPOCH":"2021-10-10T20:23:16.233216","RCS_SIZE":"LARGE","ECCENTRICITY":"0.00006770","EPHEMERIS_TYPE":"0","MEAN_MOTION":"15.06404099","CENTER_NAME":"EARTH","OBJECT_TYPE":"PAYLOAD","ELEMENT_SET_NO":"999","MEAN_MOTION_DDOT":"0.0000000000000","REF_FRAME":"TEME","REV_AT_EPOCH":"4918","FILE":"3155694","DECAY_DATE":null,"TLE_LINE2":"2 47133  53.0565 323.1085 0000677 129.8791 230.2257 15.06404099 49184"},{"PERIOD":"95.592","MEAN_ANOMALY":"318.4752","OBJECT_ID":"2020-088N","TLE_LINE1":"1 47134U 20088N   21283.49103647 -.00001535  00000-0 -84046-4 0  9999","ARG_OF_PERICENTER":"41.6641","TIME_SYSTEM":"UTC","OBJECT_NAME":"STARLINK-1844","LAUNCH_DATE":"2020-11-25","GP_ID":"186840281","MEAN_MOTION_DOT":"-0.00001535","SITE":"AFETR","SEMIMAJOR_AXIS":"6925.352","RA_OF_ASC_NODE":"334.5797","PERIAPSIS":"543.539","NORAD_CAT_ID":"47134","APOAPSIS":"550.896","BSTAR":"-0.00008404600000","MEAN_ELEMENT_THEORY":"SGP4","REV_AT_EPOCH":"4899","FILE":"3155694","DECAY_DATE":null,"TLE_LINE2":"2 47134  53.0550 334.5797 0005312  41.6641 318.4752 15.06398727 48998","MEAN_MOTION":"15.06398727","CENTER_NAME":"EARTH","OBJECT_TYPE":"PAYLOAD","MEAN_MOTION_DDOT":"0.0000000000000","ELEMENT_SET_NO":"999","REF_FRAME":"TEME","RCS_SIZE":"LARGE","EPOCH":"2021-10-10T11:47:05.551008","EPHEMERIS_TYPE":"0","ECCENTRICITY":"0.00053120","INCLINATION":"53.0550","CLASSIFICATION_TYPE":"U","COUNTRY_CODE":"US"},{"TIME_SYSTEM":"UTC","ARG_OF_PERICENTER":"85.7524","OBJECT_NAME":"STARLINK-1845","LAUNCH_DATE":"2020-11-25","GP_ID":"186840533","PERIOD":"95.593","MEAN_ANOMALY":"274.3610","TLE_LINE1":"1 47135U 20088P   21283.84212194  .00000552  00000-0  55971-4 0  9998","OBJECT_ID":"2020-088P","NORAD_CAT_ID":"47135","BSTAR":"0.00005597100000","APOAPSIS":"548.112","MEAN_ELEMENT_THEORY":"SGP4","SITE":"AFETR","SEMIMAJOR_AXIS":"6925.368","MEAN_MOTION_DOT":"0.00000552","RA_OF_ASC_NODE":"322.9891","PERIAPSIS":"546.354","MEAN_MOTION":"15.06393654","CENTER_NAME":"EARTH","OBJECT_TYPE":"PAYLOAD","ELEMENT_SET_NO":"999","MEAN_MOTION_DDOT":"0.0000000000000","REF_FRAME":"TEME","REV_AT_EPOCH":"4918","FILE":"3155694","DECAY_DATE":null,"TLE_LINE2":"2 47135  53.0566 322.9891 0001269  85.7524 274.3610 15.06393654 49187","INCLINATION":"53.0566","CLASSIFICATION_TYPE":"U","COUNTRY_CODE":"US","EPOCH":"2021-10-10T20:12:39.335616","RCS_SIZE":"LARGE","ECCENTRICITY":"0.00012690","EPHEMERIS_TYPE":"0"},{"FILE":"3155694","DECAY_DATE":null,"REV_AT_EPOCH":"4904","TLE_LINE2":"2 47136  53.0543 332.9988 0001122  91.2364 268.8753 15.06395092 49042","CENTER_NAME":"EARTH","OBJECT_TYPE":"PAYLOAD","MEAN_MOTION":"15.06395092","REF_FRAME":"TEME","ELEMENT_SET_NO":"999","MEAN_MOTION_DDOT":"0.0000000000000","EPOCH":"2021-10-10T20:11:20.141376","RCS_SIZE":"LARGE","ECCENTRICITY":"0.00011220","EPHEMERIS_TYPE":"0","CLASSIFICATION_TYPE":"U","INCLINATION":"53.0543","COUNTRY_CODE":"US","PERIOD":"95.592","MEAN_ANOMALY":"268.8753","OBJECT_ID":"2020-088Q","TLE_LINE1":"1 47136U 20088Q   21283.84120534  .00000067  00000-0  23399-4 0  9995","OBJECT_NAME":"STARLINK-1846","TIME_SYSTEM":"UTC","ARG_OF_PERICENTER":"91.2364","GP_ID":"186840784","LAUNCH_DATE":"2020-11-25","RA_OF_ASC_NODE":"332.9988","MEAN_MOTION_DOT":"0.00000067","SITE":"AFETR","SEMIMAJOR_AXIS":"6925.364","PERIAPSIS":"546.452","NORAD_CAT_ID":"47136","MEAN_ELEMENT_THEORY":"SGP4","BSTAR":"0.00002339900000","APOAPSIS":"548.006"},{"PERIAPSIS":"546.824","SEMIMAJOR_AXIS":"6925.348","SITE":"AFETR","MEAN_MOTION_DOT":"0.00000936","RA_OF_ASC_NODE":"323.0798","BSTAR":"0.00008168600000","APOAPSIS":"547.602","MEAN_ELEMENT_THEORY":"SGP4","NORAD_CAT_ID":"47137","OBJECT_ID":"2020-088R","TLE_LINE1":"1 47137U 20088R   21283.82369547  .00000936  00000-0  81686-4 0  9991","MEAN_ANOMALY":"284.2415","PERIOD":"95.592","LAUNCH_DATE":"2020-11-25","GP_ID":"186839532","ARG_OF_PERICENTER":"75.8637","TIME_SYSTEM":"UTC","OBJECT_NAME":"STARLINK-1849","EPHEMERIS_TYPE":"0","ECCENTRICITY":"0.00005620","RCS_SIZE":"LARGE","EPOCH":"2021-10-10T19:46:07.288608","COUNTRY_CODE":"US","INCLINATION":"53.0524","CLASSIFICATION_TYPE":"U","TLE_LINE2":"2 47137  53.0524 323.0798 0000562  75.8637 284.2415 15.06400228 49180","REV_AT_EPOCH":"4918","DECAY_DATE":null,"FILE":"3155694","MEAN_MOTION_DDOT":"0.0000000000000","ELEMENT_SET_NO":"999","REF_FRAME":"TEME","MEAN_MOTION":"15.06400228","CENTER_NAME":"EARTH","OBJECT_TYPE":"PAYLOAD"}];
